GLOBALSTAR M045         
1 25676U 99019A   25152.97057243 -.00000078  00000+0  14007-3 0  9996
2 25676  51.9988 348.6404 0000964 116.5100  30.7726 12.27063108191523
GLOBALSTAR M044         
1 25678U 99019C   25152.89987745 -.00000022  00000+0  85444-3 0  9990
2 25678  51.9982  67.5782 0006678  14.1825  60.3078 11.90251147169503
GLOBALSTAR M042         
1 25679U 99019D   25152.92747922 -.00000087  00000+0  45664-4 0  9998
2 25679  52.0010  94.0304 0002679 276.8418 123.8369 12.22083247183396
GLOBALSTAR M025         
1 25770U 99031A   25152.83878749 -.00000072  00000+0 -12484-3 0  9994
2 25770  51.9782 194.8283 0001655 137.9809  33.1821 11.22558329479987
GLOBALSTAR M049         
1 25771U 99031B   25152.88927305 -.00000078  00000+0 -44666-3 0  9996
2 25771  51.9864 228.7068 0002309 339.7225  20.3479 11.12116110115721
GLOBALSTAR M047         
1 25772U 99031C   25152.87210762 -.00000062  00000+0  20253-3 0  9996
2 25772  51.9818 227.1776 0016757 235.3593 124.5633 11.31928388469372
GLOBALSTAR M052         
1 25773U 99031D   25152.81852630 -.00000062  00000+0  14510-3 0  9996
2 25773  51.9889 337.7558 0003158 136.6471 322.8277 11.15059399476796
